{"type": "Feature", "properties": {"name": "Mekong Delta (13 provinces)"}, "geometry": {"type": "MultiPolygon", "coordinates": [[[[104.8183178691744, 8.459184637860801], [104.82119757211035, 8.463457175708129], [104.82407727504625, 8.472002111108566], [104.82947671917532, 8.47164607490646], [104.82983668181748, 8.465237387295645], [104.83019664535897, 8.459184637860801], [104.83559608768934, 8.455624152632595], [104.83271638475344, 8.442806136194292], [104.82875679299167, 8.43995762984082], [104.82263742357827, 8.444586441311287], [104.81939775710089, 8.453131793997159], [104.8183178691744, 8.459184637860801]]], [[[105.3988255437639, 8.998410172291642], [105.38982647231393, 8.965077444568465], [105.37520297873454, 8.934519757580802], [105.36057948605452, 8.905070834851188], [105.34258133955723, 8.872285281640472], [105.31839633312433, 8.835050679745109], [105.29871086241644, 8.81393087491], [105.25371549887126, 8.778913802430111], [105.23346758496115, 8.77002005058489], [105.21321967195036, 8.756123138172313], [105.1558505840373, 8.690522712053564], [105.10804301077638, 8.65771818944296], [105.05461101718475, 8.629359431192825], [105.01242786515394, 8.6121207127008], [104.98149355288524, 8.597105705563933], [104.92806155929361, 8.580977812576066], [104.87912910232626, 8.575972465756763], [104.8273844338446, 8.578753222583202], [104.79813744758519, 8.58487081583553], [104.76382848419723, 8.591544441023188], [104.73458149793782, 8.600998543348169], [104.71489602722994, 8.612676812984603], [104.70814672319278, 8.631027652004605], [104.71714579464276, 8.646041311957049], [104.74245568658074, 8.643261048858392], [104.77057778913371, 8.648821552572656], [104.79138814444735, 8.657162154809669], [104.79926233309027, 8.671062747248016], [104.79026325984165, 8.691078697224157], [104.79251302815379, 8.715541183179084], [104.80263698510885, 8.724992169353186], [104.80769896313672, 8.743893424941632], [104.81726047778886, 8.768352449406052], [104.83582106479037, 8.781137207116444], [104.85775630381045, 8.78836317971701], [104.87856666002341, 8.79725649089437], [104.88644084776695, 8.816154069155004], [104.87013002907764, 8.817265660881617], [104.84200792742399, 8.802814703136107], [104.82119757211035, 8.792254029999526], [104.79813744758519, 8.787807341135931], [104.7835139558045, 8.803370519234136], [104.7778895345744, 8.824490929312958], [104.78576372411663, 8.857836481368565], [104.79701256387875, 8.884510747373156], [104.80544919482452, 8.924518504125729], [104.8031994274117, 8.981744192440601], [104.80151210140241, 9.021185770207182], [104.80263698510885, 9.06562181929155], [104.80207454280594, 9.110607716572929], [104.79813744758519, 9.141705769305872], [104.81444826807319, 9.208890488805082], [104.81894780379815, 9.23831449042143], [104.82907176075321, 9.387062217447408], [104.83357129737755, 9.447542160142632], [104.83582106479037, 9.511339759422412], [104.83750839079966, 9.557932228089896], [104.84088304281823, 9.572352414632292], [104.8403206014147, 9.5884357471121], [104.84819479005756, 9.6355721518334], [104.85438165179187, 9.679929815108949], [104.86281828273763, 9.716520478137625], [104.87631689171127, 9.760867432286204], [104.88869061607915, 9.831256086399321], [104.90837608768635, 9.859518186415244], [104.92581179098141, 9.872817159384454], [104.97024471222375, 9.893872767913933], [105.01056477474464, 9.92195635610102], [105.05274792767477, 9.953119049404677], [105.08262766073801, 9.965237071333831], [105.10020397483362, 9.969564826655471], [105.10108279143776, 9.984278766851673], [105.09580989720905, 10.018897177063138], [105.0738395045895, 10.051781243809387], [105.03692924588808, 10.082931485999325], [104.99650372436747, 10.106292191831244], [104.96486635989464, 10.11148322886794], [104.93059254830752, 10.10110107025821], [104.9174103127358, 10.097640275778133], [104.89807636812992, 10.102831453109104], [104.8725907126913, 10.117539332774015], [104.85677203090455, 10.139167345396743], [104.84798387385678, 10.154738609299443], [104.81283124656483, 10.211826752602576], [104.7653752003053, 10.235178043432029], [104.73198020442294, 10.23171870135701], [104.70034283905085, 10.211826752602576], [104.68100889444497, 10.18414892863018], [104.65376560759677, 10.159928862127344], [104.62915876876224, 10.154738609299443], [104.599279035699, 10.165119031318284], [104.57994509109312, 10.221340449402248], [104.57730864397882, 10.25679807726948], [104.56500522411187, 10.302627661837164], [104.54391364809646, 10.324243080353938], [104.51842799265779, 10.352773156755802], [104.49821523234715, 10.371791767576042], [104.47097194639827, 10.376114018147462], [104.43318287199202, 10.376978460887301], [104.43142523968311, 10.418468908313514], [104.43581931910637, 10.426247751732433], [104.45778971082655, 10.432297831080064], [104.47448720921739, 10.428840657270541], [104.49206352241367, 10.419333234141504], [104.52106443977215, 10.418468908313514], [104.53161022822951, 10.437483518049987], [104.54039838527734, 10.453040061849435], [104.55709588276886, 10.478965903054018], [104.57906627538836, 10.513530315271908], [104.59576377287988, 10.52994705611178], [104.6136564603774, 10.533195739192081], [104.63277948968175, 10.530983873706873], [104.65021519297682, 10.53927828766291], [104.66765089627188, 10.542043042852185], [104.7013974182563, 10.535407589388797], [104.7193955629549, 10.532089808697776], [104.7492049906179, 10.528219018692823], [104.76382848419723, 10.526007118134032], [104.77676465086802, 10.52434818192313], [104.77669443989652, 10.524357185935457], [104.78745105012592, 10.523795201387486], [104.80601163712743, 10.524901161559399], [104.82513466643178, 10.526007118134032], [104.86225584133405, 10.532642773944929], [104.88250375434484, 10.548678354222716], [104.89600236331847, 10.56526600492225], [104.91737516003565, 10.597885770811729], [104.9387479576522, 10.626079719303675], [104.96349540728727, 10.65427106425824], [104.98768041461949, 10.671405705109237], [105.0242391472189, 10.691302786294614], [105.03830019759613, 10.699592851129239], [105.0827331188384, 10.72556692207587], [105.09008986095836, 10.736928494554434], [105.0897298983162, 10.748952729784719], [105.0879300842061, 10.75920831691036], [105.08217067743487, 10.769817176621473], [105.07533138183788, 10.780779273844473], [105.06849208714016, 10.788912183950174], [105.05985297743302, 10.798459233007236], [105.05373360801963, 10.816491719217538], [105.05337364537752, 10.828512775344336], [105.05193379301022, 10.845482854650072], [105.0450944983125, 10.85820978325495], [105.02169690858551, 10.886489903886002], [105.01917716919104, 10.892145607134125], [105.01737735508095, 10.903810153116126], [105.0256565012466, 10.916534592397568], [105.03753527743118, 10.92607756302914], [105.04977401625791, 10.935620226991944], [105.06705223477286, 10.94304208722258], [105.08217067743487, 10.950463761293577], [105.1023285997851, 10.960712434431343], [105.1084479691985, 10.959652242557013], [105.11204759831804, 10.952584205296887], [105.10916789538214, 10.939507890976415], [105.10484834007889, 10.927491309876075], [105.11600719007981, 10.924663808987646], [105.13328541039346, 10.927844746138192], [105.14372433421073, 10.929965352019451], [105.15776288714761, 10.930672217349013], [105.16496214538677, 10.930672217349013], [105.17936066096581, 10.924663808987646], [105.18476010509482, 10.914060437838998], [105.18411217233893, 10.915332863420986], [105.19465908494885, 10.917263579250857], [105.21096990363822, 10.916711316374176], [105.23965444759472, 10.905665834910394], [105.26102724521127, 10.89682915404228], [105.28296248423135, 10.891858405940752], [105.29421132489279, 10.891858405940752], [105.30770993386642, 10.887439892836824], [105.33751936242868, 10.876945663411675], [105.35439262342089, 10.888544527408044], [105.36451658037595, 10.901799819406165], [105.37689030474382, 10.91339771483274], [105.38982647231393, 10.92554740638775], [105.40557484870038, 10.944323222738603], [105.41007438532466, 10.958680397382466], [105.41963589907755, 10.979110559804553], [105.43313450805118, 10.975245502977657], [105.44382090730909, 10.965306550956598], [105.46125660970483, 10.965858723901022], [105.47081812525636, 10.965858723901022], [105.48600406023922, 10.961441313365981], [105.49500313168926, 10.956471647148874], [105.49950266921286, 10.954262878928773], [105.50800679158021, 10.95293761098202], [105.52456508571021, 10.962832803790889], [105.54688278571206, 10.972020901943097], [105.5656008565943, 10.979441849361933], [105.60231707307452, 10.988629430403932], [105.62607462544366, 10.994283183022503], [105.64803236190403, 10.998170076288034], [105.66747035896998, 11.003116957281804], [105.70238676044067, 11.014777131659343], [105.72002494339648, 11.024670252430269], [105.74882197455452, 11.036329573351168], [105.7722195642815, 11.033856422435974], [105.78085867308937, 11.027496796440062], [105.78985774633799, 10.992516397413851], [105.8089357798624, 10.966013331749934], [105.82441418516657, 10.952230798712435], [105.83485310898385, 10.940568153897232], [105.84349221869098, 10.92572412496844], [105.84853169927857, 10.914060437838998], [105.85285125368245, 10.905930930767909], [105.85429110604974, 10.88436898773864], [105.85609092015989, 10.873057181044146], [105.86113040074747, 10.868461637294786], [105.886918142958, 10.853868547995148], [105.91179877859082, 10.847985860359245], [105.9286162456433, 10.853189781982906], [105.92562135484172, 10.868348515171874], [105.93898317783146, 10.87830308481955], [105.94566408932633, 10.883732711095774], [105.94865898102722, 10.893686767230577], [105.94451220797208, 10.905902654284091], [105.94220844526359, 10.919701477641127], [105.9716966063134, 10.894591665073335], [105.99795949993103, 10.867443538188809], [106.01063019392836, 10.856131089378323], [106.0463385141112, 10.831242194371839], [106.06845463467369, 10.813818737145027], [106.08319871564828, 10.80974557539804], [106.09402640019829, 10.808387841925423], [106.1103831139896, 10.80861413113729], [106.12213230326324, 10.809066708661703], [106.13964089930812, 10.810877014262871], [106.15830137580792, 10.81178216301646], [106.16797717900369, 10.80657752193514], [106.17834411029253, 10.800467609792406], [106.19447044835255, 10.79118935910168], [106.1958527063374, 10.806803812046326], [106.19470082498316, 10.827621818791954], [106.19170593328226, 10.844818211591246], [106.18249088334767, 10.871515913928306], [106.16360003021725, 10.896175229103562], [106.14862557261216, 10.918344245090907], [106.14701293889607, 10.944130611338664], [106.14617436965148, 10.95964658762], [106.14307811266485, 10.973831912612752], [106.15103991595942, 10.98208224719798], [106.1597389241121, 10.982661210046842], [106.16711096370005, 10.98208224719798], [106.18185504377533, 10.978463708033757], [106.1904066107765, 10.975134612072736], [106.19541959913528, 10.975568844326745], [106.19850485603985, 10.975975916349206], [106.19872357883014, 10.975452561086854], [106.2356338366323, 10.964236712954005], [106.26024067726553, 10.965099485652786], [106.28308988379115, 10.978903505292578], [106.29627212026219, 10.993569569180295], [106.31296961775371, 10.991844186560002], [106.33494001037326, 10.980628961657317], [106.35427395497908, 10.964236712954005], [106.37360789958495, 10.953020440341106], [106.40876052687685, 10.933175224856768], [106.41915548234643, 10.928693430207328], [106.42247005205132, 10.919472621764157], [106.46746541469719, 10.899590644692523], [106.49727484325945, 10.891306095400012], [106.5152729879581, 10.886335254668325], [106.52652182861954, 10.876945663411675], [106.53439601726245, 10.849327504960456], [106.52933403923458, 10.809552875864597], [106.52202229199526, 10.78082347462373], [106.50064949527803, 10.756511838250788], [106.48490111799225, 10.728329990136956], [106.46859029930295, 10.6973821889369], [106.47702692934939, 10.681907103929746], [106.5040241472966, 10.659798472921238], [106.52145984969235, 10.645427000855477], [106.53552090096889, 10.614470761316625], [106.5715171912654, 10.610048185075755], [106.60076417662549, 10.598438619147032], [106.62551162715994, 10.597332923375745], [106.65700838083217, 10.605625544982956], [106.67669385243937, 10.610048185075755], [106.6952544403402, 10.599544311320983], [106.7177521207638, 10.564160188641836], [106.73406294035249, 10.538172378752336], [106.744103279243, 10.518454410142965], [106.74596356556617, 10.5089858826924], [106.74590403982471, 10.508918888101526], [106.75037375904179, 10.489508458448654], [106.75599818027189, 10.466832878634477], [106.76499725172187, 10.436411815752763], [106.77624609328262, 10.410966460733619], [106.79143202826555, 10.402668613165986], [106.80828215599678, 10.393277011025305], [106.80745096029364, 10.392655852885355], [106.80605552094562, 10.38109317580944], [106.81392970868916, 10.351217038235802], [106.7886198176505, 10.334064635774382], [106.77005923064905, 10.318571337697108], [106.77287144126404, 10.292563017869043], [106.78299539731978, 10.264892238286222], [106.77905830299835, 10.243307349054987], [106.75543573796898, 10.236665549075894], [106.72112677278238, 10.243860826016373], [106.66331821856102, 10.254248730394636], [106.67556896783367, 10.248288608432574], [106.69862909235877, 10.230577110045658], [106.71100281672665, 10.215078738892714], [106.74474933871107, 10.195151151804282], [106.76780946233686, 10.184633310678805], [106.78412028192554, 10.17854387699839], [106.78637005023768, 10.150863165302894], [106.7886198176505, 10.134807254950886], [106.79311935427484, 10.114320961343367], [106.78243295501693, 10.082758436652568], [106.76443481031828, 10.058946066108092], [106.74699910702321, 10.043993214715158], [106.73350049804958, 10.033470422821779], [106.71550235335098, 10.027931974081412], [106.69412955573449, 10.01685479331411], [106.68063094676086, 10.001899997586861], [106.66881966379651, 9.980297413295034], [106.62494918485703, 9.960355293162308], [106.61318758763713, 9.963857490630744], [106.61967629062838, 9.957446964805627], [106.66713233778722, 9.928016000637967], [106.68470865098351, 9.89425369555164], [106.68382983617806, 9.876938346727343], [106.67240523201593, 9.848366028269652], [106.65658655022918, 9.827584606844198], [106.61879747492361, 9.81719340555128], [106.60122116172727, 9.816327458245667], [106.57397787487906, 9.823254979134049], [106.56255327161625, 9.837109587437567], [106.56169709364599, 9.838676251407946], [106.56518971873061, 9.824986836873052], [106.56167445591149, 9.811131721351899], [106.54585577412473, 9.786017848345068], [106.54673458893018, 9.769562900707342], [106.57134142776476, 9.721059381685166], [106.58628129474602, 9.687275988396209], [106.59506945179385, 9.65608829843626], [106.58540247904125, 9.621431920646671], [106.57222024436885, 9.595437304687891], [106.54234051130561, 9.572907024739436], [106.48873275421329, 9.547775335263566], [106.45885302115005, 9.54517539882562], [106.43160973520116, 9.54517539882562], [106.3982147393188, 9.549508613931437], [106.36921382106107, 9.567707516988378], [106.33494001037326, 9.591971205107086], [106.3050602764107, 9.611034314382152], [106.26902883341398, 9.63789414379977], [106.18642015896324, 9.705467470247584], [106.16444976724301, 9.721059381685166], [106.12490306142718, 9.753973253762695], [106.10695503234894, 9.769193309923367], [106.12750295020106, 9.745102764680894], [106.14586105844114, 9.715655654085197], [106.18401712638934, 9.67165755415283], [106.23225215461332, 9.624459643897524], [106.25744955755113, 9.60032583227138], [106.29632555168291, 9.559507385257689], [106.29164603373755, 9.535368954713533], [106.28336688667252, 9.511228817256153], [106.27040822166214, 9.494187693307424], [106.23837152402666, 9.480696200669172], [106.22217319343821, 9.470044649241231], [106.20561490020754, 9.432051426032558], [106.20417504784024, 9.399736138212234], [106.20525493666605, 9.373455546836055], [106.20021545607847, 9.358183479284207], [106.18977653226119, 9.349304060833788], [106.17897764490243, 9.344686674350612], [106.1692586472688, 9.34433148710849], [106.1519354320746, 9.338781657447555], [106.13787438079811, 9.337116690383027], [106.10412785881368, 9.333231737854476], [106.06306958958993, 9.323796672378592], [106.03438504563343, 9.314916377988482], [105.99895119763971, 9.304925777003064], [105.96914176997677, 9.298820268840359], [105.92414640733091, 9.284943718877571], [105.89996139909937, 9.276062437931216], [105.88027592839143, 9.272176807313883], [105.85890312987561, 9.265515626045328], [105.83762040727377, 9.262284060691774], [105.82297433279928, 9.258365817028903], [105.80785589103658, 9.251970833287373], [105.77872139377735, 9.240335217596282], [105.74753960696734, 9.223325211089673], [105.7267292516537, 9.21388719044154], [105.68285877271427, 9.19612081991994], [105.65417422875771, 9.18335068968264], [105.60186711977184, 9.166693308249648], [105.5883685107982, 9.158364322555485], [105.531561865188, 9.13393150973144], [105.50231487892859, 9.123935786207596], [105.48544161793637, 9.1122737529314], [105.47025568295345, 9.087837782587656], [105.46181905200768, 9.073397562747346], [105.44126722125608, 9.058766171996034], [105.43313450805118, 9.051180704625892], [105.41401147874683, 9.025074142857477], [105.3988255437639, 8.998410172291642]], [[106.1596836328934, 10.194981983032164], [106.1951996132716, 10.167636632124925], [106.21304906065312, 10.149623417081415], [106.1997430053355, 10.164150206067177], [106.1596836328934, 10.194981983032164]]], [[[104.40306466300387, 9.746181261356185], [104.4083633174132, 9.734374383271245], [104.40652030706656, 9.721431749575629], [104.39707487960209, 9.713484270682613], [104.385556066959, 9.710986452263], [104.3689689774364, 9.705990759665895], [104.36113618368796, 9.695090809193516], [104.34777436069822, 9.696680406775386], [104.33878968739424, 9.704855364683397], [104.33556441906273, 9.721658817600428], [104.33441253770849, 9.73732614168813], [104.33256952826116, 9.751630447886896], [104.33717705277883, 9.767977475080443], [104.3452402222585, 9.785912872281301], [104.35745016389399, 9.794993716386955], [104.36712596708975, 9.797490905281109], [104.37196386823797, 9.797036871754301], [104.37242462059982, 9.785912872281301], [104.368277848444, 9.779102075300557], [104.36413107538885, 9.772972238677937], [104.3639006987583, 9.76502598735948], [104.36251844167282, 9.760712228186833], [104.3645918277507, 9.754809098960777], [104.37150311587618, 9.754809098960777], [104.37611064129311, 9.75798772035705], [104.38855095865989, 9.763890792925793], [104.40306466300387, 9.746181261356185]]], [[[104.61915759264883, 9.847657707837016], [104.62376511896514, 9.848792616286289], [104.62929414910576, 9.851970335662486], [104.63436242598522, 9.86241120111606], [104.64472935817338, 9.868312413886827], [104.6550962903616, 9.871489946204122], [104.66546322075112, 9.865134850992604], [104.665693598281, 9.851289398686845], [104.6583215568944, 9.843572008641331], [104.64680274425132, 9.839259271997832], [104.63367129789214, 9.838124331172992], [104.62468662368877, 9.836989386750872], [104.60856028472944, 9.839032284012774], [104.60740840427451, 9.843118038966395], [104.61178555306088, 9.845614865433731], [104.61915759264883, 9.847657707837016]]], [[[104.83340751374584, 9.992893999558476], [104.83778466343153, 9.997885350228785], [104.83893654388646, 10.001969123975925], [104.84446557402708, 10.006960335251335], [104.85114648642127, 10.00423786618461], [104.85045535742887, 9.996524079722576], [104.84723008909742, 9.992440236727589], [104.84699971336613, 9.983364846110817], [104.84446557402708, 9.977238813620374], [104.83939729624831, 9.97633124389182], [104.83663278117797, 9.982457292570018], [104.83525052409249, 9.987902573345139], [104.83340751374584, 9.992893999558476]]], [[[104.07286844202503, 10.247285444367833], [104.05792857504377, 10.202312771617187], [104.04738278658641, 10.17117412168841], [104.04474634037138, 10.145222926796691], [104.04298870806247, 10.126190712831203], [104.04298870806247, 10.095044656086031], [104.04474634037138, 10.07600946986122], [104.04298870806247, 10.051781243809387], [104.03771581383381, 10.031878129072425], [104.02365476255733, 10.005915705245627], [104.01486660730814, 9.987740773617872], [104.01020115026296, 9.990511737726536], [104.00768140996917, 9.996892757694638], [104.00984118672147, 10.006109565803854], [104.00948122407931, 10.01745297107783], [104.007321447327, 10.028795978851406], [104.00084211437212, 10.043683073615], [103.99616259732608, 10.053961858752814], [103.99328289259148, 10.071129359032739], [103.99103312517866, 10.094940831154474], [103.9837213788386, 10.129270548197269], [103.98259649513221, 10.146434029406976], [103.98034672682007, 10.175775913927339], [103.97472230558998, 10.19736538970102], [103.96516079183715, 10.216185789942301], [103.95278706656995, 10.246628197333507], [103.94491287792704, 10.262678470734897], [103.93422647866913, 10.27540742011638], [103.91229123964905, 10.287582456365328], [103.88810623231683, 10.300863779240046], [103.85998413066318, 10.323551409969639], [103.83861133304663, 10.354536749771228], [103.83804889074378, 10.376114018147462], [103.85942168925959, 10.37722050442278], [103.8779822762611, 10.377773745761829], [103.91172879824552, 10.36172933773878], [103.9314142689534, 10.362282606956796], [103.94491287792704, 10.3711347804458], [103.95053729915708, 10.386625481280987], [103.96741056014929, 10.410413277850523], [103.96966032756211, 10.430327247404591], [103.98540870484788, 10.448027482682221], [104.00171952443657, 10.445261886626838], [104.02702941637455, 10.423689398147246], [104.03884069843951, 10.40930690938643], [104.05627640173464, 10.389391597144538], [104.0649590997827, 10.364876043094966], [104.07550488913938, 10.336347065664597], [104.07638370394483, 10.307815498186756], [104.07550488913938, 10.26631042418677], [104.07286844202503, 10.247285444367833]]], [[[106.14010165077065, 8.61908747370802], [106.14493955281819, 8.619543022592495], [106.14516992944874, 8.61703749788228], [106.1447091770869, 8.614076401804539], [106.1447091770869, 8.611570841121477], [106.1410231563936, 8.610887502955961], [106.13848901795387, 8.612481955977557], [106.13871939368511, 8.61635416960928], [106.14010165077065, 8.61908747370802]]], [[[106.8084330181693, 10.393389750936308], [106.80830528925776, 10.393264118344462], [106.80828215599678, 10.393277011025305], [106.8084330181693, 10.393389750936308]]]]}}